[{"OBJECT_NAME":"HIBARI","OBJECT_ID":"2021-102F","EPOCH":"2026-03-09T16:55:51.090816","MEAN_MOTION":15.29554512,"ECCENTRICITY":0.00120742,"INCLINATION":97.3381,"RA_OF_ASC_NODE":115.826,"ARG_OF_PERICENTER":186.5211,"MEAN_ANOMALY":173.5875,"EPHEMERIS_TYPE":0,"CLASSIFICATION_TYPE":"U","NORAD_CAT_ID":49400,"ELEMENT_SET_NO":999,"REV_AT_EPOCH":23897,"BSTAR":0.00042758039,"MEAN_MOTION_DOT":0.00012206,"MEAN_MOTION_DDOT":0},{"OBJECT_NAME":"STARLINK-36442","OBJECT_ID":"2026-005K","EPOCH":"2026-03-09T12:30:06.687072","MEAN_MOTION":15.27594216,"ECCENTRICITY":0.00010969,"INCLINATION":43.0005,"RA_OF_ASC_NODE":238.6778,"ARG_OF_PERICENTER":293.6702,"MEAN_ANOMALY":66.4034,"EPHEMERIS_TYPE":0,"CLASSIFICATION_TYPE":"U","NORAD_CAT_ID":67413,"ELEMENT_SET_NO":999,"REV_AT_EPOCH":867,"BSTAR":0.0013003564,"MEAN_MOTION_DOT":0.0003571,"MEAN_MOTION_DDOT":0}]
